[{"OBJECT_NAME":"AMOS-17","OBJECT_ID":"2019-050A","EPOCH":"2026-03-14T13:43:27.160032","MEAN_MOTION":1.00275537,"ECCENTRICITY":0.00014167,"INCLINATION":0.0167,"RA_OF_ASC_NODE":218.0829,"ARG_OF_PERICENTER":151.5173,"MEAN_ANOMALY":25.4708,"EPHEMERIS_TYPE":0,"CLASSIFICATION_TYPE":"U","NORAD_CAT_ID":44479,"ELEMENT_SET_NO":999,"REV_AT_EPOCH":2423,"BSTAR":0,"MEAN_MOTION_DOT":1.09e-6,"MEAN_MOTION_DDOT":0}]
